[{"OBJECT_NAME":"STARLINK-31140","OBJECT_ID":"2024-011C","EPOCH":"2026-03-09T01:19:39.082944","MEAN_MOTION":15.30197835,"ECCENTRICITY":0.00010797,"INCLINATION":53.1621,"RA_OF_ASC_NODE":16.5875,"ARG_OF_PERICENTER":106.5079,"MEAN_ANOMALY":253.6041,"EPHEMERIS_TYPE":0,"CLASSIFICATION_TYPE":"U","NORAD_CAT_ID":58767,"ELEMENT_SET_NO":999,"REV_AT_EPOCH":12017,"BSTAR":3.9028293e-5,"MEAN_MOTION_DOT":7.97e-6,"MEAN_MOTION_DDOT":0},{"OBJECT_NAME":"CP8 (IPEX)","OBJECT_ID":"2013-072K","EPOCH":"2026-03-09T13:09:38.394720","MEAN_MOTION":15.06461805,"ECCENTRICITY":0.0159394,"INCLINATION":120.4656,"RA_OF_ASC_NODE":280.3913,"ARG_OF_PERICENTER":252.2911,"MEAN_ANOMALY":106.0698,"EPHEMERIS_TYPE":0,"CLASSIFICATION_TYPE":"U","NORAD_CAT_ID":39471,"ELEMENT_SET_NO":999,"REV_AT_EPOCH":10021,"BSTAR":0.00057825,"MEAN_MOTION_DOT":0.0001114,"MEAN_MOTION_DDOT":0}]
